HAWK-2C                 
1 47502U 21006CT  26068.67595434  .00008129  00000+0  25493-3 0  9997
2 47502  97.2417 114.9961 0006943 184.0877 176.0310 15.33286436284247
STARLINK-31846          
1 60126U 24118P   26068.21182631 -.00000122  00000+0  80007-5 0  9992
2 60126  53.1611  28.9083 0001213  77.6146 282.4991 15.30190165 95620
